{
  "norad_id": 68570,
  "name": "STARLINK-37228",
  "history": [
    {
      "epoch": "2026-04-09T20:00:01.999008Z",
      "apogee_km": 281.8135777709904,
      "perigee_km": 280.49503809201906,
      "latitude_deg": -43.768763282898604,
      "longitude_deg": 45.21475605448836,
      "height_km": 296.18986567702206,
      "semi_major_axis_km": 6659.291307931504,
      "eccentricity": 9.9e-05,
      "inclination_deg": 53.1587,
      "raan_deg": 228.8302,
      "arg_perigee_deg": 60.765,
      "mean_anomaly_deg": 239.7934,
      "mean_motion_rev_day": 15.9757311
    }
  ]
}