STARLINK-37228          
1 68570U 26070AE  26099.83335647 -.01375713  57790-3 -30104-2 0  9996
2 68570  53.1587 228.8302 0000990  60.7650 239.7934 15.97573110  2383
